{
  "type": "FeatureCollection",
  "name": "Ecuador, Colombia and Peru country context",
  "features": [
    {
      "type": "Feature",
      "properties": {
        "name": "Colombia",
        "iso_a3": "COL"
      },
      "geometry": {
        "type": "Polygon",
        "coordinates": [
          [
            [
              -66.87632585312258,
              1.253360500489336
            ],
            [
              -67.0650481838525,
              1.130112209473225
            ],
            [
              -67.2599975246736,
              1.7199986840849562
            ],
            [
              -67.5378100246747,
              2.03716278727633
            ],
            [
              -67.86856502955884,
              1.6924551456733923
            ],
            [
              -69.81697323269162,
              1.7148052026396243
            ],
            [
              -69.80459672715773,
              1.0890811222334662
            ],
            [
              -69.21863766140018,
              0.9856765812174331
            ],
            [
              -69.25243404811906,
              0.6026508650700748
            ],
            [
              -69.45239600287246,
              0.7061587589506929
            ],
            [
              -70.01556576198931,
              0.5414142928042054
            ],
            [
              -70.02065589057005,
              -0.18515634521953928
            ],
            [
              -69.5770653957766,
              -0.549991957200163
            ],
            [
              -69.42048580593223,
              -1.1226185034264091
            ],
            [
              -69.44410193548961,
              -1.5562871232198177
            ],
            [
              -69.89363521999663,
              -4.2981869441943275
            ],
            [
              -70.39404395209499,
              -3.7665914852078255
            ],
            [
              -70.69268205430971,
              -3.742872002785859
            ],
            [
              -70.04770850287485,
              -2.725156345229699
            ],
            [
              -70.81347571479196,
              -2.2568645158007428
            ],
            [
              -71.41364579942979,
              -2.3428024227021282
            ],
            [
              -71.7747607082854,
              -2.169789727388938
            ],
            [
              -72.32578650581365,
              -2.434218031426454
            ],
            [
              -73.07039221870724,
              -2.3089543595509525
            ],
            [
              -73.6595035468346,
              -1.2604912247811342
            ],
            [
              -74.12239518908906,
              -1.002832533373848
            ],
            [
              -74.44160051135597,
              -0.5308200008198867
            ],
            [
              -75.10662451852008,
              -0.05720549886486026
            ],
            [
              -75.37322323271385,
              -0.1520317521204504
            ],
            [
              -75.8014658271166,
              0.08480133707320192
            ],
            [
              -76.29231441924097,
              0.4160472680641192
            ],
            [
              -76.5763797675494,
              0.256935533037435
            ],
            [
              -77.4249843004304,
              0.395686753741117
            ],
            [
              -77.66861284047044,
              0.8258930525709616
            ],
            [
              -77.85506140817952,
              0.8099250349927729
            ],
            [
              -78.85525875518871,
              1.380923773601822
            ],
            [
              -78.99093522817104,
              1.6913699405952514
            ],
            [
              -78.61783138702371,
              1.766404120283056
            ],
            [
              -78.66211808949785,
              2.2673554549204766
            ],
            [
              -78.42761043975733,
              2.629555568854215
            ],
            [
              -77.93154252797149,
              2.6966057397529255
            ],
            [
              -77.12768978545526,
              3.8496361352653565
            ],
            [
              -77.49627193877703,
              4.087606105969428
            ],
            [
              -77.3076012844794,
              4.6679841170394525
            ],
            [
              -77.53322058786573,
              5.582811997902497
            ],
            [
              -77.31881507028675,
              5.84535411216136
            ],
            [
              -77.47666073272228,
              6.691116441266303
            ],
            [
              -77.88157141794525,
              7.223771267114785
            ],
            [
              -77.7534138658614,
              7.709839789252143
            ],
            [
              -77.43110795765699,
              7.638061224798734
            ],
            [
              -77.24256649444008,
              7.935278225125444
            ],
            [
              -77.47472286651133,
              8.524286200388218
            ],
            [
              -77.35336076527386,
              8.67050466555807
            ],
            [
              -76.83667395700357,
              8.638749497914716
            ],
            [
              -76.08638383655786,
              9.336820583529487
            ],
            [
              -75.67460018584006,
              9.443248195834599
            ],
            [
              -75.66470414905618,
              9.774003200718738
            ],
            [
              -75.48042599150335,
              10.618990383339309
            ],
            [
              -74.90689510771199,
              11.083044745320322
            ],
            [
              -74.27675269234489,
              11.102035834187587
            ],
            [
              -74.1972226630477,
              11.310472723836867
            ],
            [
              -73.41476396350029,
              11.22701528568548
            ],
            [
              -72.23819495307892,
              11.955549628136326
            ],
            [
              -71.75409013536864,
              12.437303168177309
            ],
            [
              -71.3998223537917,
              12.376040757695293
            ],
            [
              -71.13746110704588,
              12.112981879113505
            ],
            [
              -71.3315836249503,
              11.776284084515808
            ],
            [
              -71.97392167833829,
              11.60867157637712
            ],
            [
              -72.22757544624294,
              11.10870209395324
            ],
            [
              -72.61465776232521,
              10.821975409381778
            ],
            [
              -72.9052860175347,
              10.450344346554772
            ],
            [
              -73.02760413276957,
              9.736770331252444
            ],
            [
              -73.30495154488005,
              9.151999823437606
            ],
            [
              -72.7887298245004,
              9.085027167187334
            ],
            [
              -72.6604947577681,
              8.625287787302682
            ],
            [
              -72.43986223009796,
              8.405275376820029
            ],
            [
              -72.36090064155597,
              8.002638454617895
            ],
            [
              -72.47967892117885,
              7.632506008327354
            ],
            [
              -72.44448727078807,
              7.423784898300482
            ],
            [
              -72.19835242378188,
              7.340430813013683
            ],
            [
              -71.96017574734864,
              6.991614895043539
            ],
            [
              -70.67423356798152,
              7.087784735538719
            ],
            [
              -70.09331295437242,
              6.96037649172311
            ],
            [
              -69.38947994655712,
              6.0998605411988365
            ],
            [
              -68.98531856960236,
              6.206804917826858
            ],
            [
              -68.26505245631823,
              6.153268133972475
            ],
            [
              -67.69508724635502,
              6.267318020040647
            ],
            [
              -67.34143958196557,
              6.095468044454023
            ],
            [
              -67.52153194850275,
              5.556870428891969
            ],
            [
              -67.74469662135522,
              5.221128648291668
            ],
            [
              -67.82301225449355,
              4.503937282728899
            ],
            [
              -67.62183590358129,
              3.8394817163199946
            ],
            [
              -67.33756384954368,
              3.5423422306417223
            ],
            [
              -67.30317318385345,
              3.31845408773718
            ],
            [
              -67.8099381171237,
              2.820655015469569
            ],
            [
              -67.44709204778631,
              2.6002808699608693
            ],
            [
              -67.18129431829307,
              2.250638129074062
            ],
            [
              -66.87632585312258,
              1.253360500489336
            ]
          ]
        ]
      }
    },
    {
      "type": "Feature",
      "properties": {
        "name": "Ecuador",
        "iso_a3": "ECU"
      },
      "geometry": {
        "type": "Polygon",
        "coordinates": [
          [
            [
              -75.37322323271385,
              -0.1520317521204504
            ],
            [
              -75.23372270374195,
              -0.9114169246495294
            ],
            [
              -75.54499569365204,
              -1.5616097957458803
            ],
            [
              -76.63539425322672,
              -2.6086776668438176
            ],
            [
              -77.83790483265861,
              -3.003020521663103
            ],
            [
              -78.45068396677564,
              -3.873096612161376
            ],
            [
              -78.63989722361234,
              -4.547784112164074
            ],
            [
              -79.20528906931773,
              -4.959128513207389
            ],
            [
              -79.62497921417618,
              -4.454198093283495
            ],
            [
              -80.02890804718561,
              -4.3460909969288934
            ],
            [
              -80.44224199087216,
              -4.425724379090674
            ],
            [
              -80.46929460317695,
              -4.0592867977089995
            ],
            [
              -80.18401485870967,
              -3.8211617977080437
            ],
            [
              -80.30256059438722,
              -3.4048564591647126
            ],
            [
              -79.77029334178093,
              -2.65751189535964
            ],
            [
              -79.98655921092242,
              -2.220794366061014
            ],
            [
              -80.36878394236925,
              -2.6851587866357884
            ],
            [
              -80.96776546906436,
              -2.246942640800704
            ],
            [
              -80.76480628123804,
              -1.9650477026485331
            ],
            [
              -80.93365902375172,
              -1.057454522306358
            ],
            [
              -80.58337032746127,
              -0.9066626928786832
            ],
            [
              -80.39932471385376,
              -0.28370330160014134
            ],
            [
              -80.02089820018037,
              0.3603400740534682
            ],
            [
              -80.09060970734211,
              0.7684288598623965
            ],
            [
              -79.5427620103998,
              0.982937730305963
            ],
            [
              -78.85525875518871,
              1.380923773601822
            ],
            [
              -77.85506140817952,
              0.8099250349927729
            ],
            [
              -77.66861284047044,
              0.8258930525709616
            ],
            [
              -77.4249843004304,
              0.395686753741117
            ],
            [
              -76.5763797675494,
              0.256935533037435
            ],
            [
              -76.29231441924097,
              0.4160472680641192
            ],
            [
              -75.8014658271166,
              0.08480133707320192
            ],
            [
              -75.37322323271385,
              -0.1520317521204504
            ]
          ]
        ]
      }
    },
    {
      "type": "Feature",
      "properties": {
        "name": "Peru",
        "iso_a3": "PER"
      },
      "geometry": {
        "type": "Polygon",
        "coordinates": [
          [
            [
              -69.89363521999663,
              -4.2981869441943275
            ],
            [
              -70.7947688463023,
              -4.251264743673303
            ],
            [
              -70.92884334988358,
              -4.401591485210368
            ],
            [
              -71.74840572781655,
              -4.593982842633011
            ],
            [
              -72.89192765978726,
              -5.274561455916981
            ],
            [
              -72.9645072089412,
              -5.7412513159448935
            ],
            [
              -73.21971126981461,
              -6.089188734566078
            ],
            [
              -73.1200274319236,
              -6.629930922068239
            ],
            [
              -73.72448666044164,
              -6.91859547285064
            ],
            [
              -73.7234014553635,
              -7.340998630404414
            ],
            [
              -73.98723548042966,
              -7.523829847853065
            ],
            [
              -73.57105933296707,
              -8.424446709835834
            ],
            [
              -73.01538265653255,
              -9.032833347208062
            ],
            [
              -73.22671342639016,
              -9.462212823121234
            ],
            [
              -72.56303300646564,
              -9.520193780152717
            ],
            [
              -72.18489071316985,
              -10.053597914269432
            ],
            [
              -71.30241227892154,
              -10.079436130415374
            ],
            [
              -70.48189388699117,
              -9.490118096558845
            ],
            [
              -70.54868567572841,
              -11.009146823778465
            ],
            [
              -70.0937522040469,
              -11.123971856331012
            ],
            [
              -69.52967810736496,
              -10.951734307502194
            ],
            [
              -68.66507971868963,
              -12.561300144097173
            ],
            [
              -68.88007951523997,
              -12.899729099176653
            ],
            [
              -68.9488866848366,
              -14.453639418193283
            ],
            [
              -69.33953467474701,
              -14.953195489158832
            ],
            [
              -69.16034664577495,
              -15.323973890853019
            ],
            [
              -69.38976416693471,
              -15.660129082911652
            ],
            [
              -68.9596353827533,
              -16.50069793057127
            ],
            [
              -69.85844356960587,
              -18.092693780187012
            ],
            [
              -70.37257239447771,
              -18.34797535570887
            ],
            [
              -71.37525021023693,
              -17.773798516513857
            ],
            [
              -71.46204077827113,
              -17.363487644116383
            ],
            [
              -73.44452958850042,
              -16.359362888252996
            ],
            [
              -75.23788265654144,
              -15.265682875227782
            ],
            [
              -76.00920508492995,
              -14.649286390850321
            ],
            [
              -76.42346920439775,
              -13.823186944232432
            ],
            [
              -76.25924150257417,
              -13.535039157772943
            ],
            [
              -77.10619238962184,
              -12.22271615972082
            ],
            [
              -78.09215287953464,
              -10.377712497604065
            ],
            [
              -79.03695309112695,
              -8.386567884965892
            ],
            [
              -79.44592037628485,
              -7.93083342858386
            ],
            [
              -79.76057817251005,
              -7.194340915560084
            ],
            [
              -80.53748165558608,
              -6.541667575713717
            ],
            [
              -81.24999630402642,
              -6.136834405139183
            ],
            [
              -80.92634680858244,
              -5.690556735866565
            ],
            [
              -81.41094255239946,
              -4.7367648250554595
            ],
            [
              -81.09966956248937,
              -4.036394138203697
            ],
            [
              -80.30256059438722,
              -3.4048564591647126
            ],
            [
              -80.18401485870967,
              -3.8211617977080437
            ],
            [
              -80.46929460317695,
              -4.0592867977089995
            ],
            [
              -80.44224199087216,
              -4.425724379090674
            ],
            [
              -80.02890804718561,
              -4.3460909969288934
            ],
            [
              -79.62497921417618,
              -4.454198093283495
            ],
            [
              -79.20528906931773,
              -4.959128513207389
            ],
            [
              -78.63989722361234,
              -4.547784112164074
            ],
            [
              -78.45068396677564,
              -3.873096612161376
            ],
            [
              -77.83790483265861,
              -3.003020521663103
            ],
            [
              -76.63539425322672,
              -2.6086776668438176
            ],
            [
              -75.54499569365204,
              -1.5616097957458803
            ],
            [
              -75.23372270374195,
              -0.9114169246495294
            ],
            [
              -75.37322323271385,
              -0.1520317521204504
            ],
            [
              -75.10662451852008,
              -0.05720549886486026
            ],
            [
              -74.44160051135597,
              -0.5308200008198867
            ],
            [
              -74.12239518908906,
              -1.002832533373848
            ],
            [
              -73.6595035468346,
              -1.2604912247811342
            ],
            [
              -73.07039221870724,
              -2.3089543595509525
            ],
            [
              -72.32578650581365,
              -2.434218031426454
            ],
            [
              -71.7747607082854,
              -2.169789727388938
            ],
            [
              -71.41364579942979,
              -2.3428024227021282
            ],
            [
              -70.81347571479196,
              -2.2568645158007428
            ],
            [
              -70.04770850287485,
              -2.725156345229699
            ],
            [
              -70.69268205430971,
              -3.742872002785859
            ],
            [
              -70.39404395209499,
              -3.7665914852078255
            ],
            [
              -69.89363521999663,
              -4.2981869441943275
            ]
          ]
        ]
      }
    }
  ]
}